{
  "type": "FeatureCollection",
  "features": [
    {
      "type": "Feature",
      "properties": {
        "norad_id": 66856,
        "name": "STARLINK-36072",
        "group": "last-30-days",
        "lat": -14.429870427498763,
        "lon": -127.60805166365945,
        "alt_km": 416.0544374094343,
        "timestamp": "2025-12-26T23:26:40.922088+00:00",
        "meta_object_name": "STARLINK-36072",
        "meta_object_id": "2025-281J",
        "meta_epoch": "2025-12-26T18:00:02.998944",
        "meta_mean_motion": 15.50595613,
        "meta_eccentricity": 9.86e-05,
        "meta_inclination": 43.0003,
        "meta_ra_of_asc_node": 37.6898,
        "meta_arg_of_pericenter": 255.0352,
        "meta_mean_anomaly": 118.6308,
        "meta_ephemeris_type": 0,
        "meta_classification_type": "U",
        "meta_norad_cat_id": 66856,
        "meta_element_set_no": 999,
        "meta_rev_at_epoch": 363,
        "meta_bstar": -0.00018986,
        "meta_mean_motion_dot": -0.00011469,
        "meta_mean_motion_ddot": 0,
        "tle_line1": "1 66856U 25281J   25360.75003471 -.00011469  00000+0 -18986-3 0  9999",
        "tle_line2": "2 66856  43.0003  37.6898 0000986 255.0352 118.6308 15.50595613  3638"
      },
      "geometry": {
        "type": "Point",
        "coordinates": [
          -127.60805166365945,
          -14.429870427498763
        ]
      }
    },
    {
      "type": "Feature",
      "properties": {
        "norad_id": 66857,
        "name": "STARLINK-36083",
        "group": "last-30-days",
        "lat": -15.690966005452648,
        "lon": -126.09752808181892,
        "alt_km": 416.09246026122037,
        "timestamp": "2025-12-26T23:26:40.922098+00:00",
        "meta_object_name": "STARLINK-36083",
        "meta_object_id": "2025-281K",
        "meta_epoch": "2025-12-26T18:00:02.998944",
        "meta_mean_motion": 15.50615952,
        "meta_eccentricity": 0.0001112,
        "meta_inclination": 43.0001,
        "meta_ra_of_asc_node": 37.6842,
        "meta_arg_of_pericenter": 253.0241,
        "meta_mean_anomaly": 122.5684,
        "meta_ephemeris_type": 0,
        "meta_classification_type": "U",
        "meta_norad_cat_id": 66857,
        "meta_element_set_no": 999,
        "meta_rev_at_epoch": 363,
        "meta_bstar": -0.0010468,
        "meta_mean_motion_dot": -0.00061352,
        "meta_mean_motion_ddot": 0,
        "tle_line1": "1 66857U 25281K   25360.75003471 -.00061352  00000+0 -10468-2 0  9992",
        "tle_line2": "2 66857  43.0001  37.6842 0001112 253.0241 122.5684 15.50615952  3633"
      },
      "geometry": {
        "type": "Point",
        "coordinates": [
          -126.09752808181892,
          -15.690966005452648
        ]
      }
    },
    {
      "type": "Feature",
      "properties": {
        "norad_id": 66858,
        "name": "STARLINK-35118",
        "group": "last-30-days",
        "lat": -16.93098258557241,
        "lon": -124.58079840978144,
        "alt_km": 416.10916038422965,
        "timestamp": "2025-12-26T23:26:40.922107+00:00",
        "meta_object_name": "STARLINK-35118",
        "meta_object_id": "2025-281L",
        "meta_epoch": "2025-12-26T18:00:02.998944",
        "meta_mean_motion": 15.50592937,
        "meta_eccentricity": 0.0001134,
        "meta_inclination": 43.0005,
        "meta_ra_of_asc_node": 37.6794,
        "meta_arg_of_pericenter": 247.2444,
        "meta_mean_anomaly": 130.271,
        "meta_ephemeris_type": 0,
        "meta_classification_type": "U",
        "meta_norad_cat_id": 66858,
        "meta_element_set_no": 999,
        "meta_rev_at_epoch": 342,
        "meta_bstar": 3.7435e-05,
        "meta_mean_motion_dot": 1.856e-05,
        "meta_mean_motion_ddot": 0,
        "tle_line1": "1 66858U 25281L   25360.75003471  .00001856  00000+0  37435-4 0  9999",
        "tle_line2": "2 66858  43.0005  37.6794 0001134 247.2444 130.2710 15.50592937  3428"
      },
      "geometry": {
        "type": "Point",
        "coordinates": [
          -124.58079840978144,
          -16.93098258557241
        ]
      }
    },
    {
      "type": "Feature",
      "properties": {
        "norad_id": 66859,
        "name": "STARLINK-35646",
        "group": "last-30-days",
        "lat": -18.192449680346037,
        "lon": -123.00217665412676,
        "alt_km": 416.4515524059607,
        "timestamp": "2025-12-26T23:26:40.922116+00:00",
        "meta_object_name": "STARLINK-35646",
        "meta_object_id": "2025-281M",
        "meta_epoch": "2025-12-26T18:00:02.998944",
        "meta_mean_motion": 15.50607104,
        "meta_eccentricity": 0.0001079,
        "meta_inclination": 43.0002,
        "meta_ra_of_asc_node": 37.6742,
        "meta_arg_of_pericenter": 261.4142,
        "meta_mean_anomaly": 118.0768,
        "meta_ephemeris_type": 0,
        "meta_classification_type": "U",
        "meta_norad_cat_id": 66859,
        "meta_element_set_no": 999,
        "meta_rev_at_epoch": 363,
        "meta_bstar": -0.0015548,
        "meta_mean_motion_dot": -0.00090597,
        "meta_mean_motion_ddot": 0,
        "tle_line1": "1 66859U 25281M   25360.75003471 -.00090597  00000+0 -15548-2 0  9991",
        "tle_line2": "2 66859  43.0002  37.6742 0001079 261.4142 118.0768 15.50607104  3633"
      },
      "geometry": {
        "type": "Point",
        "coordinates": [
          -123.00217665412676,
          -18.192449680346037
        ]
      }
    },
    {
      "type": "Feature",
      "properties": {
        "norad_id": 66860,
        "name": "STARLINK-35987",
        "group": "last-30-days",
        "lat": -24.121913606724846,
        "lon": -114.95791399873573,
        "alt_km": 416.8186497446568,
        "timestamp": "2025-12-26T23:26:40.922126+00:00",
        "meta_object_name": "STARLINK-35987",
        "meta_object_id": "2025-281N",
        "meta_epoch": "2025-12-26T18:00:02.998944",
        "meta_mean_motion": 15.50609292,
        "meta_eccentricity": 0.000153,
        "meta_inclination": 43.0002,
        "meta_ra_of_asc_node": 37.6494,
        "meta_arg_of_pericenter": 273.7169,
        "meta_mean_anomaly": 115.3613,
        "meta_ephemeris_type": 0,
        "meta_classification_type": "U",
        "meta_norad_cat_id": 66860,
        "meta_element_set_no": 999,
        "meta_rev_at_epoch": 364,
        "meta_bstar": -0.0016509,
        "meta_mean_motion_dot": -0.00096114,
        "meta_mean_motion_ddot": 0,
        "tle_line1": "1 66860U 25281N   25360.75003471 -.00096114  00000+0 -16509-2 0  9992",
        "tle_line2": "2 66860  43.0002  37.6494 0001530 273.7169 115.3613 15.50609292  3646"
      },
      "geometry": {
        "type": "Point",
        "coordinates": [
          -114.95791399873573,
          -24.121913606724846
        ]
      }
    },
    {
      "type": "Feature",
      "properties": {
        "norad_id": 66861,
        "name": "STARLINK-35991",
        "group": "last-30-days",
        "lat": -20.609919319612217,
        "lon": -119.86104628325599,
        "alt_km": 416.77165377621986,
        "timestamp": "2025-12-26T23:26:40.922135+00:00",
        "meta_object_name": "STARLINK-35991",
        "meta_object_id": "2025-281P",
        "meta_epoch": "2025-12-26T18:00:02.998944",
        "meta_mean_motion": 15.5060897,
        "meta_eccentricity": 9.78e-05,
        "meta_inclination": 43.0003,
        "meta_ra_of_asc_node": 37.6643,
        "meta_arg_of_pericenter": 272.0129,
        "meta_mean_anomaly": 111.3102,
        "meta_ephemeris_type": 0,
        "meta_classification_type": "U",
        "meta_norad_cat_id": 66861,
        "meta_element_set_no": 999,
        "meta_rev_at_epoch": 363,
        "meta_bstar": -0.0015935,
        "meta_mean_motion_dot": -0.00092822,
        "meta_mean_motion_ddot": 0,
        "tle_line1": "1 66861U 25281P   25360.75003471 -.00092822  00000+0 -15935-2 0  9997",
        "tle_line2": "2 66861  43.0003  37.6643 0000978 272.0129 111.3102 15.50608970  3637"
      },
      "geometry": {
        "type": "Point",
        "coordinates": [
          -119.86104628325599,
          -20.609919319612217
        ]
      }
    },
    {
      "type": "Feature",
      "properties": {
        "norad_id": 66862,
        "name": "STARLINK-35974",
        "group": "last-30-days",
        "lat": -19.366731477424597,
        "lon": -121.49628666665153,
        "alt_km": 416.4024962065705,
        "timestamp": "2025-12-26T23:26:40.922143+00:00",
        "meta_object_name": "STARLINK-35974",
        "meta_object_id": "2025-281Q",
        "meta_epoch": "2025-12-26T18:00:02.998944",
        "meta_mean_motion": 15.50607729,
        "meta_eccentricity": 0.0001139,
        "meta_inclination": 43.0001,
        "meta_ra_of_asc_node": 37.6699,
        "meta_arg_of_pericenter": 256.9831,
        "meta_mean_anomaly": 124.3498,
        "meta_ephemeris_type": 0,
        "meta_classification_type": "U",
        "meta_norad_cat_id": 66862,
        "meta_element_set_no": 999,
        "meta_rev_at_epoch": 353,
        "meta_bstar": -0.00075433,
        "meta_mean_motion_dot": -0.00044388,
        "meta_mean_motion_ddot": 0,
        "tle_line1": "1 66862U 25281Q   25360.75003471 -.00044388  00000+0 -75433-3 0  9992",
        "tle_line2": "2 66862  43.0001  37.6699 0001139 256.9831 124.3498 15.50607729  3530"
      },
      "geometry": {
        "type": "Point",
        "coordinates": [
          -121.49628666665153,
          -19.366731477424597
        ]
      }
    }
  ]
}